{
  "type": "FeatureCollection",
  "features": [
    {
      "type": "Feature",
      "properties": {
        "norad_id": 67068,
        "name": "CZ-12 R/B",
        "group": "last-30-days",
        "lat": -14.572086302511119,
        "lon": 173.6164896888496,
        "alt_km": 724.6526100998035,
        "timestamp": "2025-12-19T22:41:51.100001+00:00",
        "meta_object_name": "CZ-12 R/B",
        "meta_object_id": "2025-295K",
        "meta_epoch": "2025-12-19T11:47:42.665856",
        "meta_mean_motion": 14.41129033,
        "meta_eccentricity": 0.0056889,
        "meta_inclination": 49.9945,
        "meta_ra_of_asc_node": 342.9744,
        "meta_arg_of_pericenter": 160.1053,
        "meta_mean_anomaly": 200.2102,
        "meta_ephemeris_type": 0,
        "meta_classification_type": "U",
        "meta_norad_cat_id": 67068,
        "meta_element_set_no": 999,
        "meta_rev_at_epoch": 108,
        "meta_bstar": 1.5271e-05,
        "meta_mean_motion_dot": -1.18e-06,
        "meta_mean_motion_ddot": 0,
        "tle_line1": "1 67068U 25295K   25353.49146604 -.00000118  00000+0  15271-4 0  9992",
        "tle_line2": "2 67068  49.9945 342.9744 0056889 160.1053 200.2102 14.41129033  1088"
      },
      "geometry": {
        "type": "Point",
        "coordinates": [
          173.6164896888496,
          -14.572086302511119
        ]
      }
    },
    {
      "type": "Feature",
      "properties": {
        "norad_id": 67069,
        "name": "XIWANG-5 02",
        "group": "last-30-days",
        "lat": 2.673751368755482,
        "lon": 63.51178789616136,
        "alt_km": 511.66647275973446,
        "timestamp": "2025-12-19T22:41:51.100013+00:00",
        "meta_object_name": "XIWANG-5 02",
        "meta_object_id": "2025-296A",
        "meta_epoch": "2025-12-19T16:21:31.212000",
        "meta_mean_motion": 15.16806567,
        "meta_eccentricity": 0.0014495,
        "meta_inclination": 41.3526,
        "meta_ra_of_asc_node": 61.975,
        "meta_arg_of_pericenter": 74.5676,
        "meta_mean_anomaly": 285.6746,
        "meta_ephemeris_type": 0,
        "meta_classification_type": "U",
        "meta_norad_cat_id": 67069,
        "meta_element_set_no": 999,
        "meta_rev_at_epoch": 101,
        "meta_bstar": 0.00043858,
        "meta_mean_motion_dot": 8.613e-05,
        "meta_mean_motion_ddot": 0,
        "tle_line1": "1 67069U 25296A   25353.68161125  .00008613  00000+0  43858-3 0  9998",
        "tle_line2": "2 67069  41.3526  61.9750 0014495  74.5676 285.6746 15.16806567  1012"
      },
      "geometry": {
        "type": "Point",
        "coordinates": [
          63.51178789616136,
          2.673751368755482
        ]
      }
    },
    {
      "type": "Feature",
      "properties": {
        "norad_id": 67070,
        "name": "DEAR-5",
        "group": "last-30-days",
        "lat": 5.453353409365727,
        "lon": 66.69059157057178,
        "alt_km": 510.23632968027687,
        "timestamp": "2025-12-19T22:41:51.100023+00:00",
        "meta_object_name": "DEAR-5",
        "meta_object_id": "2025-296B",
        "meta_epoch": "2025-12-19T16:20:25.579104",
        "meta_mean_motion": 15.16874808,
        "meta_eccentricity": 0.0016066,
        "meta_inclination": 41.3553,
        "meta_ra_of_asc_node": 61.9711,
        "meta_arg_of_pericenter": 75.9678,
        "meta_mean_anomaly": 284.2929,
        "meta_ephemeris_type": 0,
        "meta_classification_type": "U",
        "meta_norad_cat_id": 67070,
        "meta_element_set_no": 999,
        "meta_rev_at_epoch": 100,
        "meta_bstar": 0.00023707,
        "meta_mean_motion_dot": 4.569e-05,
        "meta_mean_motion_ddot": 0,
        "tle_line1": "1 67070U 25296B   25353.68085161  .00004569  00000+0  23707-3 0  9992",
        "tle_line2": "2 67070  41.3553  61.9711 0016066  75.9678 284.2929 15.16874808  1004"
      },
      "geometry": {
        "type": "Point",
        "coordinates": [
          66.69059157057178,
          5.453353409365727
        ]
      }
    },
    {
      "type": "Feature",
      "properties": {
        "norad_id": 67071,
        "name": "KZ-11 R/B",
        "group": "last-30-days",
        "lat": -27.590088873899465,
        "lon": -80.57131299370546,
        "alt_km": 873.5563525476546,
        "timestamp": "2025-12-19T22:41:51.100033+00:00",
        "meta_object_name": "KZ-11 R/B",
        "meta_object_id": "2025-296C",
        "meta_epoch": "2025-12-19T13:41:34.586880",
        "meta_mean_motion": 14.9799091,
        "meta_eccentricity": 0.0633659,
        "meta_inclination": 41.3275,
        "meta_ra_of_asc_node": 65.0444,
        "meta_arg_of_pericenter": 1.3602,
        "meta_mean_anomaly": 358.8773,
        "meta_ephemeris_type": 0,
        "meta_classification_type": "U",
        "meta_norad_cat_id": 67071,
        "meta_element_set_no": 999,
        "meta_rev_at_epoch": 96,
        "meta_bstar": 0.00052382,
        "meta_mean_motion_dot": 0.06216299,
        "meta_mean_motion_ddot": 6.2939e-06,
        "tle_line1": "1 67071U 25296C   25353.57053920  .06216299  62939-5  52382-3 0  9996",
        "tle_line2": "2 67071  41.3275  65.0444 0633659   1.3602 358.8773 14.97990910   967"
      },
      "geometry": {
        "type": "Point",
        "coordinates": [
          -80.57131299370546,
          -27.590088873899465
        ]
      }
    },
    {
      "type": "Feature",
      "properties": {
        "norad_id": 67072,
        "name": "ELECTRON R/B",
        "group": "last-30-days",
        "lat": 61.857795641549636,
        "lon": -23.855663168920657,
        "alt_km": 286.3679053574133,
        "timestamp": "2025-12-19T22:41:51.100044+00:00",
        "meta_object_name": "ELECTRON R/B",
        "meta_object_id": "2025-297A",
        "meta_epoch": "2025-12-19T17:40:02.338752",
        "meta_mean_motion": 15.91175695,
        "meta_eccentricity": 0.0189979,
        "meta_inclination": 97.4704,
        "meta_ra_of_asc_node": 141.712,
        "meta_arg_of_pericenter": 207.3211,
        "meta_mean_anomaly": 151.7973,
        "meta_ephemeris_type": 0,
        "meta_classification_type": "U",
        "meta_norad_cat_id": 67072,
        "meta_element_set_no": 999,
        "meta_rev_at_epoch": 89,
        "meta_bstar": 0.001321,
        "meta_mean_motion_dot": 0.0249772,
        "meta_mean_motion_ddot": 2.2171e-06,
        "tle_line1": "1 67072U 25297A   25353.73613818  .02497720  22171-5  13210-2 0  9990",
        "tle_line2": "2 67072  97.4704 141.7120 0189979 207.3211 151.7973 15.91175695   899"
      },
      "geometry": {
        "type": "Point",
        "coordinates": [
          -23.855663168920657,
          61.857795641549636
        ]
      }
    },
    {
      "type": "Feature",
      "properties": {
        "norad_id": 67073,
        "name": "RAISE-4",
        "group": "last-30-days",
        "lat": 53.254794069199086,
        "lon": 131.15756304604588,
        "alt_km": 543.7176120151007,
        "timestamp": "2025-12-19T22:41:51.100056+00:00",
        "meta_object_name": "RAISE-4",
        "meta_object_id": "2025-297B",
        "meta_epoch": "2025-12-19T06:31:31.025568",
        "meta_mean_motion": 15.07177511,
        "meta_eccentricity": 0.00114177,
        "meta_inclination": 97.4853,
        "meta_ra_of_asc_node": 140.6452,
        "meta_arg_of_pericenter": 296.9674,
        "meta_mean_anomaly": 63.0387,
        "meta_ephemeris_type": 0,
        "meta_classification_type": "U",
        "meta_norad_cat_id": 67073,
        "meta_element_set_no": 999,
        "meta_rev_at_epoch": 77,
        "meta_bstar": 0.00022353741,
        "meta_mean_motion_dot": 3.306e-05,
        "meta_mean_motion_ddot": 0,
        "tle_line1": "1 67073U 25297B   25353.27188687  .00003306  00000+0  22354-3 0  9993",
        "tle_line2": "2 67073  97.4853 140.6452 0011417 296.9674  63.0387 15.07177511   776"
      },
      "geometry": {
        "type": "Point",
        "coordinates": [
          131.15756304604588,
          53.254794069199086
        ]
      }
    },
    {
      "type": "Feature",
      "properties": {
        "norad_id": 67074,
        "name": "ELECTRON KICK STAGE R/B",
        "group": "last-30-days",
        "lat": -30.788400495499012,
        "lon": 146.230202020679,
        "alt_km": 391.19602608276546,
        "timestamp": "2025-12-19T22:41:51.100069+00:00",
        "meta_object_name": "ELECTRON KICK STAGE R/B",
        "meta_object_id": "2025-297C",
        "meta_epoch": "2025-12-18T23:41:00.563712",
        "meta_mean_motion": 15.55985409,
        "meta_eccentricity": 0.02022582,
        "meta_inclination": 97.4818,
        "meta_ra_of_asc_node": 140.7335,
        "meta_arg_of_pericenter": 246.792,
        "meta_mean_anomaly": 111.1921,
        "meta_ephemeris_type": 0,
        "meta_classification_type": "U",
        "meta_norad_cat_id": 67074,
        "meta_element_set_no": 999,
        "meta_rev_at_epoch": 75,
        "meta_bstar": 0.0014322456,
        "meta_mean_motion_dot": 0.00259375,
        "meta_mean_motion_ddot": 1.9664913e-05,
        "tle_line1": "1 67074U 25297C   25352.98681208  .00259375  19665-4  14322-2 0  9994",
        "tle_line2": "2 67074  97.4818 140.7335 0202258 246.7920 111.1921 15.55985409   754"
      },
      "geometry": {
        "type": "Point",
        "coordinates": [
          146.230202020679,
          -30.788400495499012
        ]
      }
    }
  ]
}